[{"OBJECT_NAME":"STARLINK-6239","OBJECT_ID":"2023-061BB","EPOCH":"2026-03-08T13:30:47.288448","MEAN_MOTION":15.02537229,"ECCENTRICITY":0.00011696,"INCLINATION":43.0027,"RA_OF_ASC_NODE":177.7115,"ARG_OF_PERICENTER":275.8336,"MEAN_ANOMALY":84.2373,"EPHEMERIS_TYPE":0,"CLASSIFICATION_TYPE":"U","NORAD_CAT_ID":56423,"ELEMENT_SET_NO":999,"REV_AT_EPOCH":15688,"BSTAR":6.1795971e-5,"MEAN_MOTION_DOT":6.31e-6,"MEAN_MOTION_DDOT":0},{"OBJECT_NAME":"CZ-6A DEB","OBJECT_ID":"2024-140YT","EPOCH":"2026-03-09T15:08:50.355168","MEAN_MOTION":14.80324244,"ECCENTRICITY":0.0130576,"INCLINATION":89.1165,"RA_OF_ASC_NODE":289.1796,"ARG_OF_PERICENTER":182.674,"MEAN_ANOMALY":177.3803,"EPHEMERIS_TYPE":0,"CLASSIFICATION_TYPE":"U","NORAD_CAT_ID":61426,"ELEMENT_SET_NO":999,"REV_AT_EPOCH":8306,"BSTAR":0.0013152,"MEAN_MOTION_DOT":0.00011629,"MEAN_MOTION_DDOT":0}]
